{
    "links": {
        "self": "http://www.neowsapp.com/rest/v1/neo/54054691?api_key=iIulBulltgU6a56xZRHN4H3l9WmuAYTsLGpBGhQ2"
    },
    "id": "54054691",
    "neo_reference_id": "54054691",
    "name": "(2020 SB6)",
    "designation": "2020 SB6",
    "nasa_jpl_url": "http://ssd.jpl.nasa.gov/sbdb.cgi?sstr=54054691",
    "absolute_magnitude_h": 26.028,
    "estimated_diameter": {
        "kilometers": {
            "estimated_diameter_min": 0.0165559832,
            "estimated_diameter_max": 0.0370203038
        },
        "meters": {
            "estimated_diameter_min": 16.5559831837,
            "estimated_diameter_max": 37.0203038332
        },
        "miles": {
            "estimated_diameter_min": 0.0102874078,
            "estimated_diameter_max": 0.0230033432
        },
        "feet": {
            "estimated_diameter_min": 54.3175318685,
            "estimated_diameter_max": 121.457693628
        }
    },
    "is_potentially_hazardous_asteroid": false,
    "close_approach_data": [
        {
            "close_approach_date": "2020-05-13",
            "close_approach_date_full": "2020-May-13 14:45",
            "epoch_date_close_approach": 1589381100000,
            "relative_velocity": {
                "kilometers_per_second": "3.1751685332",
                "kilometers_per_hour": "11430.606719581",
                "miles_per_hour": "7102.534491953"
            },
            "miss_distance": {
                "astronomical": "0.3229637449",
                "lunar": "125.6328967661",
                "kilometers": "48314688.324263363",
                "miles": "30021355.2159578894"
            },
            "orbiting_body": "Earth"
        },
        {
            "close_approach_date": "2020-09-13",
            "close_approach_date_full": "2020-Sep-13 23:54",
            "epoch_date_close_approach": 1600041240000,
            "relative_velocity": {
                "kilometers_per_second": "7.8018240791",
                "kilometers_per_hour": "28086.5666847085",
                "miles_per_hour": "17451.9002825068"
            },
            "miss_distance": {
                "astronomical": "0.0274842824",
                "lunar": "10.6913858536",
                "kilometers": "4111590.105518488",
                "miles": "2554823.6228236144"
            },
            "orbiting_body": "Earth"
        }
    ],
    "orbital_data": {
        "orbit_id": "4",
        "orbit_determination_date": "2020-10-27 07:14:48",
        "first_observation_date": "2020-09-22",
        "last_observation_date": "2020-09-28",
        "data_arc_in_days": 6,
        "observations_used": 16,
        "orbit_uncertainty": "8",
        "minimum_orbit_intersection": ".0179278",
        "jupiter_tisserand_invariant": "4.790",
        "epoch_osculation": "2459118.5",
        "eccentricity": ".296568226619264",
        "semi_major_axis": "1.362833367695497",
        "inclination": "6.16287440770106",
        "ascending_node_longitude": "356.7058773984102",
        "orbital_period": "581.1156403472356",
        "perihelion_distance": ".9586602926604845",
        "perihelion_argument": "310.7456010534623",
        "aphelion_distance": "1.76700644273051",
        "perihelion_time": "2459069.176383650643",
        "mean_anomaly": "30.55588363644529",
        "mean_motion": ".6194980396412808",
        "equinox": "J2000",
        "orbit_class": {
            "orbit_class_type": "APO",
            "orbit_class_description": "Near-Earth asteroid orbits which cross the Earth’s orbit similar to that of 1862 Apollo",
            "orbit_class_range": "a (semi-major axis) > 1.0 AU; q (perihelion) < 1.017 AU"
        }
    },
    "is_sentry_object": false
}